{
  "type": "FeatureCollection",
  "features": [
    {
      "type": "Feature",
      "properties": {
        "norad_id": 30556,
        "name": "FENGYUN 1C DEB",
        "group": "fengyun-1c-debris",
        "lat": 74.04662154694161,
        "lon": -43.59196905509089,
        "alt_km": 916.4244085818327,
        "timestamp": "2025-12-22T05:49:03.776781+00:00",
        "meta_object_name": "FENGYUN 1C DEB",
        "meta_object_id": "1999-025AKW",
        "meta_epoch": "2025-12-21T18:17:16.933056",
        "meta_mean_motion": 14.01372298,
        "meta_eccentricity": 0.0068529,
        "meta_inclination": 98.7809,
        "meta_ra_of_asc_node": 348.6763,
        "meta_arg_of_pericenter": 212.0851,
        "meta_mean_anomaly": 322.8696,
        "meta_ephemeris_type": 0,
        "meta_classification_type": "U",
        "meta_norad_cat_id": 30556,
        "meta_element_set_no": 999,
        "meta_rev_at_epoch": 96383,
        "meta_bstar": 0.00012437,
        "meta_mean_motion_dot": 1.49e-06,
        "meta_mean_motion_ddot": 0,
        "tle_line1": "1 30556U 99025AKW 25355.76200154  .00000149  00000+0  12437-3 0  9992",
        "tle_line2": "2 30556  98.7809 348.6763 0068529 212.0851 322.8696 14.01372298963830"
      },
      "geometry": {
        "type": "Point",
        "coordinates": [
          -43.59196905509089,
          74.04662154694161
        ]
      }
    },
    {
      "type": "Feature",
      "properties": {
        "norad_id": 30557,
        "name": "FENGYUN 1C DEB",
        "group": "fengyun-1c-debris",
        "lat": 15.870244228624673,
        "lon": -116.10827454212496,
        "alt_km": 820.1886968926556,
        "timestamp": "2025-12-22T05:49:03.776792+00:00",
        "meta_object_name": "FENGYUN 1C DEB",
        "meta_object_id": "1999-025AKX",
        "meta_epoch": "2025-12-20T03:40:45.719616",
        "meta_mean_motion": 14.10830894,
        "meta_eccentricity": 0.00685516,
        "meta_inclination": 98.9202,
        "meta_ra_of_asc_node": 59.2589,
        "meta_arg_of_pericenter": 211.8311,
        "meta_mean_anomaly": 147.8708,
        "meta_ephemeris_type": 0,
        "meta_classification_type": "U",
        "meta_norad_cat_id": 30557,
        "meta_element_set_no": 999,
        "meta_rev_at_epoch": 96405,
        "meta_bstar": 0.00083897282,
        "meta_mean_motion_dot": 1.492e-05,
        "meta_mean_motion_ddot": 0,
        "tle_line1": "1 30557U 99025AKX 25354.15330694  .00001492  00000+0  83897-3 0  9998",
        "tle_line2": "2 30557  98.9202  59.2589 0068551 211.8311 147.8708 14.10830894964059"
      },
      "geometry": {
        "type": "Point",
        "coordinates": [
          -116.10827454212496,
          15.870244228624673
        ]
      }
    },
    {
      "type": "Feature",
      "properties": {
        "norad_id": 30558,
        "name": "FENGYUN 1C DEB",
        "group": "fengyun-1c-debris",
        "lat": -37.280473059129,
        "lon": 143.7162358461705,
        "alt_km": 1046.2254437301972,
        "timestamp": "2025-12-22T05:49:03.776803+00:00",
        "meta_object_name": "FENGYUN 1C DEB",
        "meta_object_id": "1999-025AKY",
        "meta_epoch": "2025-12-18T02:35:59.256672",
        "meta_mean_motion": 13.28535877,
        "meta_eccentricity": 0.04271131,
        "meta_inclination": 99.4659,
        "meta_ra_of_asc_node": 132.6231,
        "meta_arg_of_pericenter": 260.3076,
        "meta_mean_anomaly": 94.9567,
        "meta_ephemeris_type": 0,
        "meta_classification_type": "U",
        "meta_norad_cat_id": 30558,
        "meta_element_set_no": 999,
        "meta_rev_at_epoch": 90829,
        "meta_bstar": 0.0032374201,
        "meta_mean_motion_dot": 2.396e-05,
        "meta_mean_motion_ddot": 0,
        "tle_line1": "1 30558U 99025AKY 25352.10832473  .00002396  00000+0  32374-2 0  9991",
        "tle_line2": "2 30558  99.4659 132.6231 0427113 260.3076  94.9567 13.28535877908292"
      },
      "geometry": {
        "type": "Point",
        "coordinates": [
          143.7162358461705,
          -37.280473059129
        ]
      }
    },
    {
      "type": "Feature",
      "properties": {
        "norad_id": 30560,
        "name": "FENGYUN 1C DEB",
        "group": "fengyun-1c-debris",
        "lat": 51.140127599732516,
        "lon": -179.35162470260852,
        "alt_km": 783.8862049359705,
        "timestamp": "2025-12-22T05:49:03.776813+00:00",
        "meta_object_name": "FENGYUN 1C DEB",
        "meta_object_id": "1999-025ALA",
        "meta_epoch": "2025-12-21T12:50:25.509408",
        "meta_mean_motion": 14.17035472,
        "meta_eccentricity": 0.0115361,
        "meta_inclination": 98.664,
        "meta_ra_of_asc_node": 349.0509,
        "meta_arg_of_pericenter": 186.3727,
        "meta_mean_anomaly": 296.1019,
        "meta_ephemeris_type": 0,
        "meta_classification_type": "U",
        "meta_norad_cat_id": 30560,
        "meta_element_set_no": 999,
        "meta_rev_at_epoch": 97493,
        "meta_bstar": 0.00019546688,
        "meta_mean_motion_dot": 3.77e-06,
        "meta_mean_motion_ddot": 0,
        "tle_line1": "1 30560U 99025ALA 25355.53501747  .00000377  00000+0  19547-3 0  9996",
        "tle_line2": "2 30560  98.6640 349.0509 0115361 186.3727 296.1019 14.17035472974934"
      },
      "geometry": {
        "type": "Point",
        "coordinates": [
          -179.35162470260852,
          51.140127599732516
        ]
      }
    },
    {
      "type": "Feature",
      "properties": {
        "norad_id": 30561,
        "name": "FENGYUN 1C DEB",
        "group": "fengyun-1c-debris",
        "lat": 31.103000096922095,
        "lon": -7.206619175288683,
        "alt_km": 828.3039257415221,
        "timestamp": "2025-12-22T05:49:03.776824+00:00",
        "meta_object_name": "FENGYUN 1C DEB",
        "meta_object_id": "1999-025ALB",
        "meta_epoch": "2025-12-21T16:22:13.916064",
        "meta_mean_motion": 14.11281512,
        "meta_eccentricity": 0.0060768,
        "meta_inclination": 98.7246,
        "meta_ra_of_asc_node": 357.5646,
        "meta_arg_of_pericenter": 88.9653,
        "meta_mean_anomaly": 338.1383,
        "meta_ephemeris_type": 0,
        "meta_classification_type": "U",
        "meta_norad_cat_id": 30561,
        "meta_element_set_no": 999,
        "meta_rev_at_epoch": 97104,
        "meta_bstar": 0.00027254,
        "meta_mean_motion_dot": 4.59e-06,
        "meta_mean_motion_ddot": 0,
        "tle_line1": "1 30561U 99025ALB 25355.68210551  .00000459  00000+0  27254-3 0  9998",
        "tle_line2": "2 30561  98.7246 357.5646 0060768  88.9653 338.1383 14.11281512971041"
      },
      "geometry": {
        "type": "Point",
        "coordinates": [
          -7.206619175288683,
          31.103000096922095
        ]
      }
    },
    {
      "type": "Feature",
      "properties": {
        "norad_id": 30562,
        "name": "FENGYUN 1C DEB",
        "group": "fengyun-1c-debris",
        "lat": -55.19438293826703,
        "lon": 76.76509490955475,
        "alt_km": 804.1521469734807,
        "timestamp": "2025-12-22T05:49:03.776835+00:00",
        "meta_object_name": "FENGYUN 1C DEB",
        "meta_object_id": "1999-025ALC",
        "meta_epoch": "2025-12-21T03:13:27.960960",
        "meta_mean_motion": 14.23106423,
        "meta_eccentricity": 0.00597176,
        "meta_inclination": 98.7632,
        "meta_ra_of_asc_node": 62.8424,
        "meta_arg_of_pericenter": 241.105,
        "meta_mean_anomaly": 148.5924,
        "meta_ephemeris_type": 0,
        "meta_classification_type": "U",
        "meta_norad_cat_id": 30562,
        "meta_element_set_no": 999,
        "meta_rev_at_epoch": 97119,
        "meta_bstar": 0.001085954,
        "meta_mean_motion_dot": 2.452e-05,
        "meta_mean_motion_ddot": 0,
        "tle_line1": "1 30562U 99025ALC 25355.13435140  .00002452  00000+0  10860-2 0  9991",
        "tle_line2": "2 30562  98.7632  62.8424 0059717 241.1050 148.5924 14.23106423971197"
      },
      "geometry": {
        "type": "Point",
        "coordinates": [
          76.76509490955475,
          -55.19438293826703
        ]
      }
    },
    {
      "type": "Feature",
      "properties": {
        "norad_id": 30564,
        "name": "FENGYUN 1C DEB",
        "group": "fengyun-1c-debris",
        "lat": 2.407448076308341,
        "lon": 7.385743464150242,
        "alt_km": 872.7791316739585,
        "timestamp": "2025-12-22T05:49:03.776845+00:00",
        "meta_object_name": "FENGYUN 1C DEB",
        "meta_object_id": "1999-025ALE",
        "meta_epoch": "2025-12-20T23:20:49.892352",
        "meta_mean_motion": 14.05771142,
        "meta_eccentricity": 0.02029279,
        "meta_inclination": 98.7956,
        "meta_ra_of_asc_node": 6.5254,
        "meta_arg_of_pericenter": 95.8526,
        "meta_mean_anomaly": 327.3967,
        "meta_ephemeris_type": 0,
        "meta_classification_type": "U",
        "meta_norad_cat_id": 30564,
        "meta_element_set_no": 999,
        "meta_rev_at_epoch": 96411,
        "meta_bstar": 0.00058897424,
        "meta_mean_motion_dot": 1.117e-05,
        "meta_mean_motion_ddot": 0,
        "tle_line1": "1 30564U 99025ALE 25354.97279968  .00001117  00000+0  58897-3 0  9998",
        "tle_line2": "2 30564  98.7956   6.5254 0202927  95.8526 327.3967 14.05771142964113"
      },
      "geometry": {
        "type": "Point",
        "coordinates": [
          7.385743464150242,
          2.407448076308341
        ]
      }
    }
  ]
}